{
  "type": "FeatureCollection",
  "features": [
    {
      "type": "Feature",
      "properties": {
        "norad_id": 67040,
        "name": "STARLINK-35786",
        "group": "last-30-days",
        "lat": -39.99511574203844,
        "lon": -21.1710783993671,
        "alt_km": 380.59988644646637,
        "timestamp": "2025-12-27T02:10:14.910382+00:00",
        "meta_object_name": "STARLINK-35786",
        "meta_object_id": "2025-294L",
        "meta_epoch": "2025-12-26T20:00:01.999008",
        "meta_mean_motion": 15.64345505,
        "meta_eccentricity": 0.0001362,
        "meta_inclination": 42.9993,
        "meta_ra_of_asc_node": 96.1602,
        "meta_arg_of_pericenter": 276.2933,
        "meta_mean_anomaly": 325.1094,
        "meta_ephemeris_type": 0,
        "meta_classification_type": "U",
        "meta_norad_cat_id": 67040,
        "meta_element_set_no": 999,
        "meta_rev_at_epoch": 237,
        "meta_bstar": -0.022353,
        "meta_mean_motion_dot": -0.01942302,
        "meta_mean_motion_ddot": 0,
        "tle_line1": "1 67040U 25294L   25360.83335647 -.01942302  00000+0 -22353-1 0  9992",
        "tle_line2": "2 67040  42.9993  96.1602 0001362 276.2933 325.1094 15.64345505  2377"
      },
      "geometry": {
        "type": "Point",
        "coordinates": [
          -21.1710783993671,
          -39.99511574203844
        ]
      }
    },
    {
      "type": "Feature",
      "properties": {
        "norad_id": 67041,
        "name": "STARLINK-35765",
        "group": "last-30-days",
        "lat": -41.062020664616526,
        "lon": -16.167375272357553,
        "alt_km": 380.6224403631304,
        "timestamp": "2025-12-27T02:10:14.910392+00:00",
        "meta_object_name": "STARLINK-35765",
        "meta_object_id": "2025-294M",
        "meta_epoch": "2025-12-26T20:00:01.999008",
        "meta_mean_motion": 15.64335618,
        "meta_eccentricity": 0.0001426,
        "meta_inclination": 42.9994,
        "meta_ra_of_asc_node": 96.1498,
        "meta_arg_of_pericenter": 277.7831,
        "meta_mean_anomaly": 327.5927,
        "meta_ephemeris_type": 0,
        "meta_classification_type": "U",
        "meta_norad_cat_id": 67041,
        "meta_element_set_no": 999,
        "meta_rev_at_epoch": 237,
        "meta_bstar": -0.022415,
        "meta_mean_motion_dot": -0.01946398,
        "meta_mean_motion_ddot": 0,
        "tle_line1": "1 67041U 25294M   25360.83335647 -.01946398  00000+0 -22415-1 0  9991",
        "tle_line2": "2 67041  42.9994  96.1498 0001426 277.7831 327.5927 15.64335618  2371"
      },
      "geometry": {
        "type": "Point",
        "coordinates": [
          -16.167375272357553,
          -41.062020664616526
        ]
      }
    },
    {
      "type": "Feature",
      "properties": {
        "norad_id": 67042,
        "name": "STARLINK-35773",
        "group": "last-30-days",
        "lat": -41.52412513436886,
        "lon": -13.537210745680932,
        "alt_km": 380.6917313483964,
        "timestamp": "2025-12-27T02:10:14.910402+00:00",
        "meta_object_name": "STARLINK-35773",
        "meta_object_id": "2025-294N",
        "meta_epoch": "2025-12-26T20:00:01.999008",
        "meta_mean_motion": 15.64324624,
        "meta_eccentricity": 0.000136,
        "meta_inclination": 42.9996,
        "meta_ra_of_asc_node": 96.1446,
        "meta_arg_of_pericenter": 277.2473,
        "meta_mean_anomaly": 330.1735,
        "meta_ephemeris_type": 0,
        "meta_classification_type": "U",
        "meta_norad_cat_id": 67042,
        "meta_element_set_no": 999,
        "meta_rev_at_epoch": 256,
        "meta_bstar": -0.022404,
        "meta_mean_motion_dot": -0.01944742,
        "meta_mean_motion_ddot": 0,
        "tle_line1": "1 67042U 25294N   25360.83335647 -.01944742  00000+0 -22404-1 0  9991",
        "tle_line2": "2 67042  42.9996  96.1446 0001360 277.2473 330.1735 15.64324624  2564"
      },
      "geometry": {
        "type": "Point",
        "coordinates": [
          -13.537210745680932,
          -41.52412513436886
        ]
      }
    },
    {
      "type": "Feature",
      "properties": {
        "norad_id": 67043,
        "name": "STARLINK-35901",
        "group": "last-30-days",
        "lat": -41.923218398799236,
        "lon": -10.88383062394978,
        "alt_km": 380.6856909120934,
        "timestamp": "2025-12-27T02:10:14.910422+00:00",
        "meta_object_name": "STARLINK-35901",
        "meta_object_id": "2025-294P",
        "meta_epoch": "2025-12-26T20:00:01.999008",
        "meta_mean_motion": 15.64315141,
        "meta_eccentricity": 0.0001448,
        "meta_inclination": 42.9995,
        "meta_ra_of_asc_node": 96.1398,
        "meta_arg_of_pericenter": 279.6114,
        "meta_mean_anomaly": 329.8458,
        "meta_ephemeris_type": 0,
        "meta_classification_type": "U",
        "meta_norad_cat_id": 67043,
        "meta_element_set_no": 999,
        "meta_rev_at_epoch": 256,
        "meta_bstar": -0.022423,
        "meta_mean_motion_dot": -0.01945663,
        "meta_mean_motion_ddot": 0,
        "tle_line1": "1 67043U 25294P   25360.83335647 -.01945663  00000+0 -22423-1 0  9996",
        "tle_line2": "2 67043  42.9995  96.1398 0001448 279.6114 329.8458 15.64315141  2566"
      },
      "geometry": {
        "type": "Point",
        "coordinates": [
          -10.88383062394978,
          -41.923218398799236
        ]
      }
    },
    {
      "type": "Feature",
      "properties": {
        "norad_id": 67044,
        "name": "STARLINK-35884",
        "group": "last-30-days",
        "lat": -42.25755080430452,
        "lon": -8.227292512960057,
        "alt_km": 380.7186282037401,
        "timestamp": "2025-12-27T02:10:14.910436+00:00",
        "meta_object_name": "STARLINK-35884",
        "meta_object_id": "2025-294Q",
        "meta_epoch": "2025-12-26T20:00:01.999008",
        "meta_mean_motion": 15.6430561,
        "meta_eccentricity": 0.0001411,
        "meta_inclination": 42.9998,
        "meta_ra_of_asc_node": 96.1349,
        "meta_arg_of_pericenter": 277.894,
        "meta_mean_anomaly": 333.5763,
        "meta_ephemeris_type": 0,
        "meta_classification_type": "U",
        "meta_norad_cat_id": 67044,
        "meta_element_set_no": 999,
        "meta_rev_at_epoch": 256,
        "meta_bstar": -0.022404,
        "meta_mean_motion_dot": -0.01943495,
        "meta_mean_motion_ddot": 0,
        "tle_line1": "1 67044U 25294Q   25360.83335647 -.01943495  00000+0 -22404-1 0  9997",
        "tle_line2": "2 67044  42.9998  96.1349 0001411 277.8940 333.5763 15.64305610  2564"
      },
      "geometry": {
        "type": "Point",
        "coordinates": [
          -8.227292512960057,
          -42.25755080430452
        ]
      }
    },
    {
      "type": "Feature",
      "properties": {
        "norad_id": 67045,
        "name": "STARLINK-35891",
        "group": "last-30-days",
        "lat": -42.54643466784974,
        "lon": -5.350691243321946,
        "alt_km": 380.76788789119473,
        "timestamp": "2025-12-27T02:10:14.910447+00:00",
        "meta_object_name": "STARLINK-35891",
        "meta_object_id": "2025-294R",
        "meta_epoch": "2025-12-26T20:00:01.999008",
        "meta_mean_motion": 15.64281244,
        "meta_eccentricity": 0.0001423,
        "meta_inclination": 42.9996,
        "meta_ra_of_asc_node": 96.1295,
        "meta_arg_of_pericenter": 277.1155,
        "meta_mean_anomaly": 336.5264,
        "meta_ephemeris_type": 0,
        "meta_classification_type": "U",
        "meta_norad_cat_id": 67045,
        "meta_element_set_no": 999,
        "meta_rev_at_epoch": 248,
        "meta_bstar": -0.022378,
        "meta_mean_motion_dot": -0.01939823,
        "meta_mean_motion_ddot": 0,
        "tle_line1": "1 67045U 25294R   25360.83335647 -.01939823  00000+0 -22378-1 0  9998",
        "tle_line2": "2 67045  42.9996  96.1295 0001423 277.1155 336.5264 15.64281244  2483"
      },
      "geometry": {
        "type": "Point",
        "coordinates": [
          -5.350691243321946,
          -42.54643466784974
        ]
      }
    },
    {
      "type": "Feature",
      "properties": {
        "norad_id": 67046,
        "name": "STARLINK-35721",
        "group": "last-30-days",
        "lat": -42.755696159707576,
        "lon": -2.563279285486997,
        "alt_km": 380.82759242743305,
        "timestamp": "2025-12-27T02:10:14.910457+00:00",
        "meta_object_name": "STARLINK-35721",
        "meta_object_id": "2025-294S",
        "meta_epoch": "2025-12-26T20:00:01.999008",
        "meta_mean_motion": 15.64272187,
        "meta_eccentricity": 0.0001373,
        "meta_inclination": 42.9996,
        "meta_ra_of_asc_node": 96.1242,
        "meta_arg_of_pericenter": 275.1086,
        "meta_mean_anomaly": 340.6103,
        "meta_ephemeris_type": 0,
        "meta_classification_type": "U",
        "meta_norad_cat_id": 67046,
        "meta_element_set_no": 999,
        "meta_rev_at_epoch": 256,
        "meta_bstar": -0.022483,
        "meta_mean_motion_dot": -0.01947224,
        "meta_mean_motion_ddot": 0,
        "tle_line1": "1 67046U 25294S   25360.83335647 -.01947224  00000+0 -22483-1 0  9990",
        "tle_line2": "2 67046  42.9996  96.1242 0001373 275.1086 340.6103 15.64272187  2564"
      },
      "geometry": {
        "type": "Point",
        "coordinates": [
          -2.563279285486997,
          -42.755696159707576
        ]
      }
    }
  ]
}